BEIDOU-2 IGSO-1 (C06)   
1 36828U 10036A   25002.90031315 -.00000076  00000+0  00000+0 0  9990
2 36828  54.2656 167.7558 0043617 206.1011 160.5516  1.00272520 52783
BEIDOU-2 G4 (C04)       
1 37210U 10057A   25003.63936719 -.00000098  00000+0  00000+0 0  9996
2 37210   2.3327  70.3301 0009304 191.3647 232.0001  1.00270619 51980
BEIDOU-2 IGSO-2 (C07)   
1 37256U 10068A   25002.68243802 -.00000181  00000+0  00000+0 0  9999
2 37256  48.5118 278.3853 0039558 215.5817 321.4594  1.00289083 51462
BEIDOU-2 IGSO-3 (C08)   
1 37384U 11013A   25003.55325991 -.00000159  00000+0  00000+0 0  9994
2 37384  61.6428  45.1832 0030254 184.1302 178.9375  1.00258385 50355
BEIDOU-2 IGSO-4 (C09)   
1 37763U 11038A   25002.90899396  .00000044  00000+0  00000+0 0  9997
2 37763  54.5701 170.4096 0131530 228.4430 127.0165  1.00265489 49328
BEIDOU-2 IGSO-5 (C10)   
1 37948U 11073A   25003.65415659 -.00000141  00000+0  00000+0 0  9999
2 37948  48.6454 278.0707 0101618 220.9230 295.2186  1.00286836 47828
BEIDOU-2 G5 (C05)       
1 38091U 12008A   25003.54422434  .00000071  00000+0  00000+0 0  9996
2 38091   2.2533  71.1348 0012870 232.0486  54.8509  1.00270045 47051
BEIDOU-2 M3 (C11)       
1 38250U 12018A   25003.21562369 -.00000058  00000+0  00000+0 0  9996
2 38250  56.1960 322.6715 0024654 270.6376  89.0809  1.86233528 86078
BEIDOU-2 M4 (C12)       
1 38251U 12018B   25003.14642428 -.00000058  00000+0  00000+0 0  9994
2 38251  56.1011 321.9302 0015586 275.0747  84.7488  1.86231976 86075
BEIDOU-2 M6 (C14)       
1 38775U 12050B   25003.39321834 -.00000013  00000+0  00000+0 0  9994
2 38775  56.0783  80.4806 0011818 335.6233  24.3746  1.86230868 83448
BEIDOU-2 G6 (C02)       
1 38953U 12059A   25003.54926340 -.00000162  00000+0  00000+0 0  9996
2 38953   3.0714  78.8839 0008371 289.0575  17.1848  1.00273054 44596
BEIDOU-3S IGSO-1S (C31) 
1 40549U 15019A   25003.60976493 -.00000170  00000+0  00000+0 0  9999
2 40549  50.1995 301.8171 0034272 198.1657 278.0548  1.00259196 35767
BEIDOU-3S M2S (C58)     
1 40748U 15037A   25003.34752904 -.00000059  00000+0  00000+0 0  9996
2 40748  55.3268 320.2187 0012047 266.7777  93.0879  1.86228996 64257
BEIDOU-3S M1S (C57)     
1 40749U 15037B   25003.08414564 -.00000058  00000+0  00000+0 0  9994
2 40749  55.3297 320.2143 0004626 332.5066  27.4716  1.86227436 64258
BEIDOU-3S IGSO-2S (C56) 
1 40938U 15053A   25003.65226633 -.00000104  00000+0  00000+0 0  9995
2 40938  50.0433 265.0591 0051544 188.0189 340.3927  1.00259831 34041
BEIDOU-2 IGSO-6 (C13)   
1 41434U 16021A   25003.55230422 -.00000146  00000+0  00000+0 0  9999
2 41434  59.4716  43.3317 0055275 227.5992 128.3216  1.00275550 32161
BEIDOU-2 G7 (C03)       
1 41586U 16037A   25003.61026715 -.00000339  00000+0  00000+0 0  9993
2 41586   1.8597  67.7503 0008008 341.8048  24.1564  1.00268860  1585
BEIDOU-3 M1 (C19)       
1 43001U 17069A   25003.15903496 -.00000012  00000+0  00000+0 0  9990
2 43001  56.2271  80.6111 0010021 296.5388  63.4122  1.86231060 48732
BEIDOU-3 M2 (C20)       
1 43002U 17069B   25002.55973077 -.00000011  00000+0  00000+0 0  9995
2 43002  56.2263  80.6668 0007236 319.9508  40.0486  1.86230838 48713
BEIDOU-3 M7 (C27)       
1 43107U 18003A   25003.38084374 -.00000060  00000+0  00000+0 0  9999
2 43107  54.7854 320.7205 0003123  53.7077 306.3244  1.86232251 47482
BEIDOU-3 M8 (C28)       
1 43108U 18003B   25003.32293400 -.00000060  00000+0  00000+0 0  9996
2 43108  54.7783 320.7069 0004727 276.0897  83.8597  1.86230733 47495
BEIDOU-3 M4 (C22)       
1 43207U 18018A   25003.22717232 -.00000012  00000+0  00000+0 0  9992
2 43207  56.1860  80.6911 0004275 349.3382  10.7062  1.86230972 46878
BEIDOU-3 M3 (C21)       
1 43208U 18018B   25003.29374625 -.00000012  00000+0  00000+0 0  9995
2 43208  56.1855  80.6931 0007439 306.8325  53.1529  1.86231151 46874
BEIDOU-3 M9 (C29)       
1 43245U 18029A   25002.43923772 -.00000057  00000+0  00000+0 0  9995
2 43245  54.6634 318.4418 0001935 292.1216  67.8609  1.86232388 46016
BEIDOU-3 M10 (C30)      
1 43246U 18029B   25001.29474745 -.00000059  00000+0  00000+0 0  9992
2 43246  54.6616 318.5082 0004328 350.7256   9.2660  1.86232558 45980
BEIDOU-2 IGSO-7 (C16)   
1 43539U 18057A   25002.87271712 -.00000077  00000+0  00000+0 0  9992
2 43539  55.1586 167.6456 0079313 231.9395 127.6056  1.00250441 23825
BEIDOU-3 M5 (C23)       
1 43581U 18062A   25003.13170658  .00000100  00000+0  00000+0 0  9998
2 43581  54.1129 200.3274 0001720 354.8542   5.1797  1.86228555 43765
BEIDOU-3 M6 (C24)       
1 43582U 18062B   25002.99648640  .00000100  00000+0  00000+0 0  9993
2 43582  54.1124 200.3215 0007439  44.8224 315.2740  1.86229544 43764
BEIDOU-3 M12 (C26)      
1 43602U 18067A   24366.78294054  .00000107  00000+0  00000+0 0  9993
2 43602  54.2043 199.0965 0008692  36.8787 323.2293  1.86227735 43202
BEIDOU-3 M11 (C25)      
1 43603U 18067B   25003.60129429  .00000102  00000+0  00000+0 0  9992
2 43603  54.2018 198.9655 0005242  33.7383 326.3259  1.86227187 43280
BEIDOU-3 M13 (C32)      
1 43622U 18072A   25003.56178454 -.00000014  00000+0  00000+0 0  9999
2 43622  56.1588  80.2051 0006788 291.6371  68.3447  1.86230947 42790
BEIDOU-3 M14 (C33)      
1 43623U 18072B   25003.42725689 -.00000013  00000+0  00000+0 0  9992
2 43623  56.1606  80.2028 0004006 316.7029  43.3198  1.86230945 42789
BEIDOU-3 M16 (C35)      
1 43647U 18078A   25003.05158036 -.00000058  00000+0  00000+0 0  9998
2 43647  54.5592 318.5022 0007532  11.1823 348.8387  1.86232190 42289
BEIDOU-3 M15 (C34)      
1 43648U 18078B   25003.18074824 -.00000058  00000+0  00000+0 0  9995
2 43648  54.5546 318.4998 0004329  10.6353 349.3785  1.86231980 42300
BEIDOU-3 G1 (C59)       
1 43683U 18085A   25003.59618081 -.00000265  00000+0  00000+0 0  9996
2 43683   2.6900 102.7000 0000953  45.4903 309.8620  1.00266214 22740
BEIDOU-3 M17 (C36)      
1 43706U 18093A   25001.18611939  .00000105  00000+0  00000+0 0  9991
2 43706  54.1959 200.3471 0006106 300.6218  59.3661  1.86228339 41631
BEIDOU-3 M18 (C37)      
1 43707U 18093B   25003.19763131  .00000100  00000+0  00000+0 0  9992
2 43707  54.1975 200.2705 0006020 344.4223  15.5944  1.86229733 41666
BEIDOU-3 IGSO-1 (C38)   
1 44204U 19023A   25003.55205653 -.00000199  00000+0  00000+0 0  9998
2 44204  57.9355  43.1311 0023780 223.3597 153.3214  1.00294049  1902
BEIDOU-2 G8 (C01)       
1 44231U 19027A   25003.52273420 -.00000236  00000+0  00000+0 0  9998
2 44231   1.9759  74.8611 0004850 211.5905 149.4893  1.00265027 20771
BEIDOU-3 IGSO-2 (C39)   
1 44337U 19035A   25003.34161887 -.00000089  00000+0  00000+0 0  9993
2 44337  55.1972 163.5127 0035741 197.0461 343.8048  1.00276901 20351
BEIDOU-3 M24 (C46)      
1 44542U 19061A   25001.12002471  .00000105  00000+0  00000+0 0  9995
2 44542  54.4236 200.6747 0009099  19.2112 340.8726  1.86229164 35887
BEIDOU-3 M23 (C45)      
1 44543U 19061B   25003.13313389  .00000101  00000+0  00000+0 0  9998
2 44543  54.4220 200.5752 0005655  19.4303 162.9660  1.86229339 35923
BEIDOU-3 IGSO-3 (C40)   
1 44709U 19073A   25003.18292004 -.00000179  00000+0  00000+0 0  9996
2 44709  55.7094 286.6028 0041181 184.3908 175.6331  1.00296122 19140
BEIDOU-3 M22 (C44)      
1 44793U 19078A   25003.11181660 -.00000058  00000+0  00000+0 0  9998
2 44793  54.4063 318.4076 0006287  14.9527 345.0705  1.86231842 34771
BEIDOU-3 M21 (C43)      
1 44794U 19078B   25003.24149858 -.00000059  00000+0  00000+0 0  9997
2 44794  54.3797 318.3749 0004570   4.0367 355.9719  1.86227561 34785
BEIDOU-3 M19 (C41)      
1 44864U 19090A   25003.47864316 -.00000013  00000+0  00000+0 0  9997
2 44864  56.0923  80.3683 0018432 280.1723  70.9633  1.86231304 34364
BEIDOU-3 M20 (C42)      
1 44865U 19090B   25003.41886858 -.00000013  00000+0  00000+0 0  9997
2 44865  56.0940  80.4039 0015753 292.2081 108.5430  1.86231297 34357
BEIDOU-3 G2 (C60)       
1 45344U 20017A   25003.54848149 -.00000127  00000+0  00000+0 0  9992
2 45344   2.5977  36.3995 0004169 234.8303 109.6436  1.00270433 17940
BEIDOU-3 G3 (C61)       
1 45807U 20040A   25003.60564660 -.00000339  00000+0  00000+0 0  9997
2 45807   1.1803  58.6163 0003929 304.5162  68.8516  1.00265785 16760
BEIDOU-3 G4 (C62)       
1 56564U 23066A   25003.63964623 -.00000097  00000+0  00000+0 0  9997
2 56564   1.6254 289.3636 0003235 264.8111 299.5259  1.00269484  6088
BEIDOU-3 M28 (C50)      
1 58654U 23207A   25003.32423731 -.00000014  00000+0  00000+0 0  9991
2 58654  55.2788  80.2498 0003257 265.5847  94.4312  1.86231883  6975
BEIDOU-3 M26 (C48)      
1 58655U 23207B   24366.97586001 -.00000018  00000+0  00000+0 0  9998
2 58655  55.2789  80.3155 0004415 251.9174 108.0809  1.86231338  6919
